NORAD_CAT_ID,OBJECT_NAME,OBJECT_TYPE,EPOCH,MEAN_MOTION,ECCENTRICITY,INCLINATION,RA_OF_ASC_NODE,ARG_OF_PERICENTER,MEAN_ANOMALY,BSTAR,MEAN_MOTION_DOT,MEAN_MOTION_DDOT,TLE_LINE0,TLE_LINE1,TLE_LINE2,SEMIMAJOR_AXIS,PERIOD,APOGEE,PERIGEE,DECAYED
52623.0,STARLINK-3986,PAYLOAD,2023-08-30 00:08:49,15.08838919,0.0001431,53.2181,91.2046,91.4276,268.688,6.97e-05,8.21e-06,0.0,0 STARLINK-3986,1 52623U 22052AB  23242.00613100  .00000821  00000-0  69700-4 0  9990,2 52623  53.2181  91.2046 0001431  91.4276 268.6880 15.08838919 72076,6917.884,95.438,540.739,538.759,0.0
52623.0,STARLINK-3986,PAYLOAD,2023-08-30 20:48:50,15.08843091,0.000161,53.2174,87.3396,92.934,267.1836,6.4253e-05,7.35e-06,0.0,0 STARLINK-3986,1 52623U 22052AB  23242.86724945  .00000735  00000-0  64253-4 0  9996,2 52623  53.2174  87.3396 0001610  92.9340 267.1836 15.08843091 71823,6917.871,95.437,540.85,538.622,0.0
52623.0,STARLINK-3986,PAYLOAD,2023-08-30 23:59:36,15.08852823,0.000125,53.2175,86.7457,93.5684,266.5451,-6.4628e-05,-1.317e-05,0.0,0 STARLINK-3986,1 52623U 22052AB  23242.99972612 -.00001317  00000-0 -64628-4 0  9991,2 52623  53.2175  86.7457 0001250  93.5684 266.5451 15.08852823 72227,6917.841,95.437,540.571,538.841,0.0
52623.0,STARLINK-3986,PAYLOAD,2023-08-31 23:50:21,15.08886031,6.22e-05,53.2181,82.2939,55.7231,304.382,0.00013872,1.923e-05,0.0,0 STARLINK-3986,1 52623U 22052AB  23243.99329899  .00001923  00000-0  13872-3 0  9990,2 52623  53.2181  82.2939 0000622  55.7231 304.3820 15.08886031 72375,6917.74,95.435,540.035,539.174,0.0
52623.0,STARLINK-3986,PAYLOAD,2023-09-01 20:30:27,15.08730991,0.0005334,53.2083,78.4223,104.257,255.9014,0.0015814,0.000249,0.0,0 STARLINK-3986,1 52623U 22052AB  23244.85448493  .00024900  00000-0  15814-2 0  9995,2 52623  53.2083  78.4223 0005334 104.2570 255.9014 15.08730991 72122,6918.214,95.444,543.769,536.388,0.0
52623.0,STARLINK-3986,PAYLOAD,2023-09-02 06:00:00,15.08836288,0.0001262,53.2153,76.6432,94.5618,255.3302,-0.00068341,-0.00011147,0.0,0 STARLINK-3986,1 52623U 22052AB  23245.25001157 -.00011147  00000-0 -68341-3 0  9997,2 52623  53.2153  76.6432 0001262  94.5618 255.3302 15.08836288 72560,6917.892,95.438,540.63,538.884,0.0
52623.0,STARLINK-3986,PAYLOAD,2023-09-02 12:24:16,15.08835369,0.0001297,53.2162,75.4456,91.6247,268.4894,7.5196e-05,9.09e-06,0.0,0 STARLINK-3986,1 52623U 22052AB  23245.51685883  .00000909  00000-0  75196-4 0  9999,2 52623  53.2162  75.4456 0001297  91.6247 268.4894 15.08835369 72220,6917.895,95.438,540.657,538.862,0.0
52623.0,STARLINK-3986,PAYLOAD,2023-09-02 18:45:48,15.08840994,0.000122,53.218,74.257,93.0637,267.0494,0.00012941,1.772e-05,0.0,0 STARLINK-3986,1 52623U 22052AB  23245.78181446  .00001772  00000-0  12941-3 0  9991,2 52623  53.2180  74.2570 0001220  93.0637 267.0494 15.08840994 72646,6917.877,95.437,540.586,538.898,0.0
52623.0,STARLINK-3986,PAYLOAD,2023-09-03 05:53:30,15.08845392,0.0001321,53.2164,72.1743,90.4017,269.7126,0.00017728,2.535e-05,0.0,0 STARLINK-3986,1 52623U 22052AB  23246.24549220  .00002535  00000-0  17728-3 0  9997,2 52623  53.2164  72.1743 0001321  90.4017 269.7126 15.08845392 72336,6917.864,95.437,540.643,538.815,0.0
52623.0,STARLINK-3986,PAYLOAD,2023-09-03 23:22:44,15.0885378,0.0001315,53.2167,68.9027,94.3481,265.7662,0.00030983,4.648e-05,0.0,0 STARLINK-3986,1 52623U 22052AB  23246.97412724  .00004648  00000-0  30983-3 0  9990,2 52623  53.2167  68.9027 0001315  94.3481 265.7662 15.08853780 72823,6917.838,95.437,540.613,538.794,0.0
52623.0,STARLINK-3986,PAYLOAD,2023-09-04 12:05:50,15.08834138,0.0001229,53.2171,66.5246,93.3283,266.785,4.2178e-06,-2.21e-06,0.0,0 STARLINK-3986,1 52623U 22052AB  23247.50405647 -.00000221  00000-0  42178-5 0  9991,2 52623  53.2171  66.5246 0001229  93.3283 266.7850 15.08834138 72521,6917.898,95.438,540.614,538.913,0.0
52623.0,STARLINK-3986,PAYLOAD,2023-09-04 18:27:22,15.08838152,0.0001351,53.2173,65.3354,93.0832,267.0315,6.6245e-05,7.66e-06,0.0,0 STARLINK-3986,1 52623U 22052AB  23247.76901570  .00000766  00000-0  66245-4 0  9998,2 52623  53.2173  65.3354 0001351  93.0832 267.0315 15.08838152 72949,6917.886,95.438,540.686,538.816,0.0
52623.0,STARLINK-3986,PAYLOAD,2023-09-05 14:00:01,15.08859262,0.0001372,53.2173,61.679,92.6166,13.1748,-0.0011751,-0.00018951,0.0,0 STARLINK-3986,1 52623U 22052AB  23248.58334491 -.00018951  00000-0 -11751-2 0  9998,2 52623  53.2173  61.6790 0001372  92.6166  13.1748 15.08859262  5851,6917.822,95.436,540.636,538.737,0.0
52623.0,STARLINK-3986,PAYLOAD,2023-09-05 20:00:01,15.08846027,0.0001417,53.2174,60.5581,85.2171,299.2842,-0.001447,-0.00023247,0.0,0 STARLINK-3986,1 52623U 22052AB  23248.83334491 -.00023247  00000-0 -14470-2 0  9991,2 52623  53.2174  60.5581 0001417  85.2171 299.2842 15.08846027 73102,6917.862,95.437,540.707,538.747,0.0
52623.0,STARLINK-3986,PAYLOAD,2023-09-06 00:00:00,15.08826731,0.0001367,53.2172,59.8098,84.589,125.7147,0.00084524,0.00013185,0.0,0 STARLINK-3986,1 52623U 22052AB  23249.00001157  .00013185  00000-0  84524-3 0  9997,2 52623  53.2172  59.8098 0001367  84.5890 125.7147 15.08826731 73121,6917.921,95.438,540.732,538.84,0.0
52623.0,STARLINK-3986,PAYLOAD,2023-09-06 11:47:24,15.08843649,0.0001358,53.2177,57.6035,94.0715,266.0432,0.00028907,4.316e-05,0.0,0 STARLINK-3986,1 52623U 22052AB  23249.49125890  .00004316  00000-0  28907-3 0  9990,2 52623  53.2177  57.6035 0001358  94.0715 266.0432 15.08843649 72824,6917.869,95.437,540.674,538.795,0.0
52623.0,STARLINK-3986,PAYLOAD,2023-09-07 03:41:15,15.08846154,0.0001382,53.2182,54.6303,94.2369,265.8781,0.00022345,3.271e-05,0.0,0 STARLINK-3986,1 52623U 22052AB  23250.15365696  .00003271  00000-0  22345-3 0  9994,2 52623  53.2182  54.6303 0001382  94.2369 265.8781 15.08846154 73301,6917.862,95.437,540.683,538.771,0.0
52623.0,STARLINK-3986,PAYLOAD,2023-09-07 11:38:11,15.08838618,0.0001446,53.2177,53.1446,89.8506,270.2652,5.0307e-05,5.13e-06,0.0,0 STARLINK-3986,1 52623U 22052AB  23250.48485963  .00000513  00000-0  50307-4 0  9996,2 52623  53.2177  53.1446 0001446  89.8506 270.2652 15.08838618 72976,6917.885,95.438,540.75,538.749,0.0
52623.0,STARLINK-3986,PAYLOAD,2023-09-07 21:10:30,15.0884631,0.0001685,53.2188,51.3598,97.8472,262.2712,6.513e-05,7.49e-06,0.0,0 STARLINK-3986,1 52623U 22052AB  23250.88229627  .00000749  00000-0  65130-4 0  9994,2 52623  53.2188  51.3598 0001685  97.8472 262.2712 15.08846310 73036,6917.861,95.437,540.892,538.56,0.0
52623.0,STARLINK-3986,PAYLOAD,2023-09-08 03:32:03,15.08843871,0.0001565,53.217,50.1704,94.6992,265.4179,9.1739e-05,1.172e-05,0.0,0 STARLINK-3986,1 52623U 22052AB  23251.14725712  .00001172  00000-0  91739-4 0  9995,2 52623  53.2170  50.1704 0001565  94.6992 265.4179 15.08843871 73077,6917.869,95.437,540.816,538.651,0.0
52623.0,STARLINK-3986,PAYLOAD,2023-09-08 17:50:31,15.08841982,0.0001429,53.2156,47.4942,82.9743,277.1412,0.00024068,3.545e-05,0.0,0 STARLINK-3986,1 52623U 22052AB  23251.74341874  .00003545  00000-0  24068-3 0  9990,2 52623  53.2156  47.4942 0001429  82.9743 277.1412 15.08841982 73540,6917.874,95.437,540.728,538.751,0.0
52623.0,STARLINK-3986,PAYLOAD,2023-09-08 21:01:17,15.08843478,0.0001558,53.2162,46.8992,86.9596,273.1574,0.0002689,3.995e-05,0.0,0 STARLINK-3986,1 52623U 22052AB  23251.87589845  .00003995  00000-0  26890-3 0  9990,2 52623  53.2162  46.8992 0001558  86.9596 273.1574 15.08843478 73185,6917.87,95.437,540.813,538.657,0.0
52623.0,STARLINK-3986,PAYLOAD,2023-09-09 09:44:22,15.0883828,0.0001402,53.2156,44.5202,84.1152,276.0,0.00010717,1.418e-05,0.0,0 STARLINK-3986,1 52623U 22052AB  23252.40582044  .00001418  00000-0  10717-3 0  9993,2 52623  53.2156  44.5202 0001402  84.1152 276.0000 15.08838280 73645,6917.886,95.438,540.721,538.781,0.0
52623.0,STARLINK-3986,PAYLOAD,2023-09-09 11:19:46,15.08832364,0.0001441,53.2159,44.2225,86.857,273.2587,0.00013707,1.894e-05,0.0,0 STARLINK-3986,1 52623U 22052AB  23252.47206444  .00001894  00000-0  13707-3 0  9997,2 52623  53.2159  44.2225 0001441  86.8570 273.2587 15.08832364 73271,6917.904,95.438,540.766,538.772,0.0
52623.0,STARLINK-3986,PAYLOAD,2023-09-10 09:35:09,15.08840936,0.0001362,53.2176,40.0589,92.3364,267.7784,0.00010421,1.371e-05,0.0,0 STARLINK-3986,1 52623U 22052AB  23253.39941995  .00001371  00000-0  10421-3 0  9996,2 52623  53.2176  40.0589 0001362  92.3364 267.7784 15.08840936 73419,6917.878,95.437,540.685,538.8,0.0
52623.0,STARLINK-3986,PAYLOAD,2023-09-10 17:32:05,15.08846993,0.0001398,53.2185,38.5729,87.6402,272.475,0.00011895,1.606e-05,0.0,0 STARLINK-3986,1 52623U 22052AB  23253.73061761  .00001606  00000-0  11895-3 0  9995,2 52623  53.2185  38.5729 0001398  87.6402 272.4750 15.08846993 73848,6917.859,95.437,540.691,538.757,0.0
52623.0,STARLINK-3986,PAYLOAD,2023-09-11 03:04:24,15.08842142,0.0001448,53.2186,36.7889,80.5864,279.5292,5.2983e-05,5.55e-06,0.0,0 STARLINK-3986,1 52623U 22052AB  23254.12806006  .00000555  00000-0  52983-4 0  9994,2 52623  53.2186  36.7889 0001448  80.5864 279.5292 15.08842142 73904,6917.874,95.437,540.741,538.737,0.0
52623.0,STARLINK-3986,PAYLOAD,2023-09-11 14:12:06,15.08838209,0.0001548,53.2189,34.7087,75.9367,284.1798,0.00015169,2.127e-05,0.0,0 STARLINK-3986,1 52623U 22052AB  23254.59174499  .00002127  00000-0  15169-3 0  9990,2 52623  53.2189  34.7087 0001548  75.9367 284.1798 15.08838209 73599,6917.886,95.438,540.822,538.68,0.0
52623.0,STARLINK-3986,PAYLOAD,2023-09-12 09:16:44,15.0883653,0.000129,53.2196,31.1369,92.6829,267.4311,0.00018944,2.728e-05,0.0,0 STARLINK-3986,1 52623U 22052AB  23255.38662480  .00002728  00000-0  18944-3 0  9991,2 52623  53.2196  31.1369 0001290  92.6829 267.4311 15.08836530 74090,6917.891,95.438,540.648,538.864,0.0
52623.0,STARLINK-3986,PAYLOAD,2023-09-12 15:38:16,15.08847392,0.0001417,53.2186,29.9496,86.8589,273.2565,0.00013612,1.879e-05,0.0,0 STARLINK-3986,1 52623U 22052AB  23255.65157956  .00001879  00000-0  13612-3 0  9991,2 52623  53.2186  29.9496 0001417  86.8589 273.2565 15.08847392 74133,6917.858,95.437,540.703,538.743,0.0
